[
    {
        "CCSDS_OMM_VERS": "3.0",
        "COMMENT": "GENERATED VIA SPACE-TRACK.ORG API",
        "CREATION_DATE": "2025-05-03T17:28:03",
        "ORIGINATOR": "18 SPCS",
        "OBJECT_NAME": "COSMOS 2545 (GLONASS)",
        "OBJECT_ID": "2020-018A",
        "CENTER_NAME": "EARTH",
        "REF_FRAME": "TEME",
        "TIME_SYSTEM": "UTC",
        "MEAN_ELEMENT_THEORY": "SGP4",
        "EPOCH": "2025-05-03T02:11:45.204288",
        "MEAN_MOTION": "2.13102513",
        "ECCENTRICITY": "0.00071200",
        "INCLINATION": "64.5933",
        "RA_OF_ASC_NODE": "326.7990",
        "ARG_OF_PERICENTER": "242.8712",
        "MEAN_ANOMALY": "117.0824",
        "EPHEMERIS_TYPE": "0",
        "CLASSIFICATION_TYPE": "U",
        "NORAD_CAT_ID": "45358",
        "ELEMENT_SET_NO": "999",
        "REV_AT_EPOCH": "3992",
        "BSTAR": "0.00000000000000",
        "MEAN_MOTION_DOT": "-0.00000050",
        "MEAN_MOTION_DDOT": "0.0000000000000",
        "SEMIMAJOR_AXIS": "25507.983",
        "PERIOD": "675.731",
        "APOAPSIS": "19148.010",
        "PERIAPSIS": "19111.687",
        "OBJECT_TYPE": "PAYLOAD",
        "RCS_SIZE": "LARGE",
        "COUNTRY_CODE": "CIS",
        "LAUNCH_DATE": "2020-03-16",
        "SITE": "PKMTR",
        "DECAY_DATE": null,
        "FILE": "4717971",
        "GP_ID": "286763504",
        "TLE_LINE0": "0 COSMOS 2545 (GLONASS)",
        "TLE_LINE1": "1 45358U 20018A   25123.09149542 -.00000050  00000-0  00000-0 0  9999",
        "TLE_LINE2": "2 45358  64.5933 326.7990 0007120 242.8712 117.0824  2.13102513 39923"
    }
]